LEMUR-2-AMANDA-SVANTE   
1 48269U 21034B   26068.77637527  .00030872  00000+0  11134-2 0  9996
2 48269  97.5829 144.8625 0002703 205.4721 154.6385 15.28469003265849
STARLINK-32437          
1 63001U 25031W   26068.18919734  .00037422  00000+0  13622-2 0  9998
2 63001  42.9988 146.6039 0000897 247.7057 112.3700 15.27587016 61011
