[{"OBJECT_NAME":"LEMUR-2-AMANDA-SVANTE","OBJECT_ID":"2021-034B","EPOCH":"2026-03-09T18:37:58.823328","MEAN_MOTION":15.28469003,"ECCENTRICITY":0.00027027,"INCLINATION":97.5829,"RA_OF_ASC_NODE":144.8625,"ARG_OF_PERICENTER":205.4721,"MEAN_ANOMALY":154.6385,"EPHEMERIS_TYPE":0,"CLASSIFICATION_TYPE":"U","NORAD_CAT_ID":48269,"ELEMENT_SET_NO":999,"REV_AT_EPOCH":26584,"BSTAR":0.0011134246,"MEAN_MOTION_DOT":0.00030872,"MEAN_MOTION_DDOT":0},{"OBJECT_NAME":"STARLINK-32437","OBJECT_ID":"2025-031W","EPOCH":"2026-03-09T04:32:26.650176","MEAN_MOTION":15.27587016,"ECCENTRICITY":8.974e-5,"INCLINATION":42.9988,"RA_OF_ASC_NODE":146.6039,"ARG_OF_PERICENTER":247.7057,"MEAN_ANOMALY":112.37,"EPHEMERIS_TYPE":0,"CLASSIFICATION_TYPE":"U","NORAD_CAT_ID":63001,"ELEMENT_SET_NO":999,"REV_AT_EPOCH":6101,"BSTAR":0.0013622232,"MEAN_MOTION_DOT":0.00037422,"MEAN_MOTION_DDOT":0}]
